{"type": "FeatureCollection", "features": [ {"type": "Feature", "properties": {"norad_id": 33748, "name": "FENGYUN 1C DEB", "group": "fengyun-1c-debris", "lat": 4.273281942072724, "lon": 48.63588388376526, "alt_km": 809.3704748629862, "timestamp": "2025-12-24T05:51:19.895928+00:00", "meta": {"OBJECT_NAME": "FENGYUN 1C DEB", "OBJECT_ID": "1999-025DJM", "EPOCH": "2025-12-20T21:21:40.065984", "MEAN_MOTION": 14.32332217, "ECCENTRICITY": 0.0034916, "INCLINATION": 98.5853, "RA_OF_ASC_NODE": 45.9627, "ARG_OF_PERICENTER": 216.6923, "MEAN_ANOMALY": 143.1869, "EPHEMERIS_TYPE": 0, "CLASSIFICATION_TYPE": "U", "NORAD_CAT_ID": 33748, "ELEMENT_SET_NO": 999, "REV_AT_EPOCH": 91510, "BSTAR": 0.00084448, "MEAN_MOTION_DOT": 2.253e-05, "MEAN_MOTION_DDOT": 0}, "tle": {"line1": "1 33748U 99025DJM 25354.89004706  .00002253  00000+0  84448-3 0  9995", "line2": "2 33748  98.5853  45.9627 0034916 216.6923 143.1869 14.32332217915106"}}, "geometry": {"type": "Point", "coordinates": [48.63588388376526, 4.273281942072724]}}, {"type": "Feature", "properties": {"norad_id": 35088, "name": "FENGYUN 1C DEB", "group": "fengyun-1c-debris", "lat": -36.39890806172973, "lon": 171.688024195194, "alt_km": 1032.9292735200133, "timestamp": "2025-12-24T05:51:19.895938+00:00", "meta": {"OBJECT_NAME": "FENGYUN 1C DEB", "OBJECT_ID": "1999-025DJQ", "EPOCH": "2025-12-20T06:48:25.112736", "MEAN_MOTION": 14.12178698, "ECCENTRICITY": 0.02665925, "INCLINATION": 94.6216, "RA_OF_ASC_NODE": 166.2192, "ARG_OF_PERICENTER": 179.9936, "MEAN_ANOMALY": 180.1297, "EPHEMERIS_TYPE": 0, "CLASSIFICATION_TYPE": "U", "NORAD_CAT_ID": 35088, "ELEMENT_SET_NO": 999, "REV_AT_EPOCH": 58906, "BSTAR": 0.004541836, "MEAN_MOTION_DOT": 0.00011675, "MEAN_MOTION_DDOT": 0}, "tle": {"line1": "1 35088U 99025DJQ 25354.28362399  .00011675  00000+0  45418-2 0  9993", "line2": "2 35088  94.6216 166.2192 0266592 179.9936 180.1297 14.12178698589068"}}, "geometry": {"type": "Point", "coordinates": [171.688024195194, -36.39890806172973]}}, {"type": "Feature", "properties": {"norad_id": 35089, "name": "FENGYUN 1C DEB", "group": "fengyun-1c-debris", "lat": 4.982350100277768, "lon": -171.5525789905306, "alt_km": 845.9131934899997, "timestamp": "2025-12-24T05:51:19.895949+00:00", "meta": {"OBJECT_NAME": "FENGYUN 1C DEB", "OBJECT_ID": "1999-025DJR", "EPOCH": "2025-12-23T07:02:36.109536", "MEAN_MOTION": 14.19444078, "ECCENTRICITY": 0.00286047, "INCLINATION": 98.5591, "RA_OF_ASC_NODE": 6.7767, "ARG_OF_PERICENTER": 34.5935, "MEAN_ANOMALY": 325.7095, "EPHEMERIS_TYPE": 0, "CLASSIFICATION_TYPE": "U", "NORAD_CAT_ID": 35089, "ELEMENT_SET_NO": 999, "REV_AT_EPOCH": 61025, "BSTAR": 0.00054341362, "MEAN_MOTION_DOT": 1.106e-05, "MEAN_MOTION_DDOT": 0}, "tle": {"line1": "1 35089U 99025DJR 25357.29347349  .00001106  00000+0  54341-3 0  9990", "line2": "2 35089  98.5591   6.7767 0028604  34.5935 325.7095 14.19444078610253"}}, "geometry": {"type": "Point", "coordinates": [-171.5525789905306, 4.982350100277768]}}, {"type": "Feature", "properties": {"norad_id": 35090, "name": "FENGYUN 1C DEB", "group": "fengyun-1c-debris", "lat": 60.76440024651484, "lon": -5.488120996190773, "alt_km": 820.1820856973864, "timestamp": "2025-12-24T05:51:19.895959+00:00", "meta": {"OBJECT_NAME": "FENGYUN 1C DEB", "OBJECT_ID": "1999-025DJS", "EPOCH": "2025-12-15T11:31:21.871200", "MEAN_MOTION": 14.17610468, "ECCENTRICITY": 0.00548506, "INCLINATION": 99.1994, "RA_OF_ASC_NODE": 2.2725, "ARG_OF_PERICENTER": 7.0781, "MEAN_ANOMALY": 353.1155, "EPHEMERIS_TYPE": 0, "CLASSIFICATION_TYPE": "U", "NORAD_CAT_ID": 35090, "ELEMENT_SET_NO": 999, "REV_AT_EPOCH": 66289, "BSTAR": 0.0011364277, "MEAN_MOTION_DOT": 2.298e-05, "MEAN_MOTION_DDOT": 0}, "tle": {"line1": "1 35090U 99025DJS 25349.48011425  .00002298  00000+0  11364-2 0  9997", "line2": "2 35090  99.1994   2.2725 0054850   7.0781 353.1155 14.17610468662895"}}, "geometry": {"type": "Point", "coordinates": [-5.488120996190773, 60.76440024651484]}}, {"type": "Feature", "properties": {"norad_id": 35091, "name": "FENGYUN 1C DEB", "group": "fengyun-1c-debris", "lat": 56.439549647503, "lon": 89.81104260935902, "alt_km": 715.0903869904696, "timestamp": "2025-12-24T05:51:19.895969+00:00", "meta": {"OBJECT_NAME": "FENGYUN 1C DEB", "OBJECT_ID": "1999-025DJT", "EPOCH": "2025-12-23T06:35:36.825792", "MEAN_MOTION": 14.61813042, "ECCENTRICITY": 0.00499018, "INCLINATION": 98.5978, "RA_OF_ASC_NODE": 101.9864, "ARG_OF_PERICENTER": 259.6924, "MEAN_ANOMALY": 99.8647, "EPHEMERIS_TYPE": 0, "CLASSIFICATION_TYPE": "U", "NORAD_CAT_ID": 35091, "ELEMENT_SET_NO": 999, "REV_AT_EPOCH": 90081, "BSTAR": 0.0028835573, "MEAN_MOTION_DOT": 0.0001463, "MEAN_MOTION_DDOT": 0}, "tle": {"line1": "1 35091U 99025DJT 25357.27473178  .00014630  00000+0  28836-2 0  9996", "line2": "2 35091  98.5978 101.9864 0049901 259.6924  99.8647 14.61813042900816"}}, "geometry": {"type": "Point", "coordinates": [89.81104260935902, 56.439549647503]}}, {"type": "Feature", "properties": {"norad_id": 35102, "name": "FENGYUN 1C DEB", "group": "fengyun-1c-debris", "lat": -65.43992087531487, "lon": 27.25626548114765, "alt_km": 827.238091709346, "timestamp": "2025-12-24T05:51:19.895980+00:00", "meta": {"OBJECT_NAME": "FENGYUN 1C DEB", "OBJECT_ID": "1999-025DKE", "EPOCH": "2025-12-13T06:19:02.409312", "MEAN_MOTION": 14.28874039, "ECCENTRICITY": 0.00607637, "INCLINATION": 98.4802, "RA_OF_ASC_NODE": 357.5239, "ARG_OF_PERICENTER": 90.2418, "MEAN_ANOMALY": 270.5727, "EPHEMERIS_TYPE": 0, "CLASSIFICATION_TYPE": "U", "NORAD_CAT_ID": 35102, "ELEMENT_SET_NO": 999, "REV_AT_EPOCH": 64920, "BSTAR": 0.00073405609, "MEAN_MOTION_DOT": 1.848e-05, "MEAN_MOTION_DDOT": 0}, "tle": {"line1": "1 35102U 99025DKE 25347.26322233  .00001848  00000+0  73406-3 0  9993", "line2": "2 35102  98.4802 357.5239 0060763  90.2418 270.5727 14.28874039649201"}}, "geometry": {"type": "Point", "coordinates": [27.25626548114765, -65.43992087531487]}}, {"type": "Feature", "properties": {"norad_id": 35104, "name": "FENGYUN 1C DEB", "group": "fengyun-1c-debris", "lat": 73.74038943725176, "lon": -144.1396502902068, "alt_km": 794.5153576765597, "timestamp": "2025-12-24T05:51:19.895990+00:00", "meta": {"OBJECT_NAME": "FENGYUN 1C DEB", "OBJECT_ID": "1999-025DKG", "EPOCH": "2025-12-20T06:46:17.192352", "MEAN_MOTION": 14.20340868, "ECCENTRICITY": 0.00314522, "INCLINATION": 98.5954, "RA_OF_ASC_NODE": 0.7725, "ARG_OF_PERICENTER": 119.6618, "MEAN_ANOMALY": 257.8395, "EPHEMERIS_TYPE": 0, "CLASSIFICATION_TYPE": "U", "NORAD_CAT_ID": 35104, "ELEMENT_SET_NO": 999, "REV_AT_EPOCH": 89874, "BSTAR": 0.00030233796, "MEAN_MOTION_DOT": 6.08e-06, "MEAN_MOTION_DDOT": 0}, "tle": {"line1": "1 35104U 99025DKG 25354.28214343  .00000608  00000+0  30234-3 0  9992", "line2": "2 35104  98.5954   0.7725 0031452 119.6618 257.8395 14.20340868898744"}}, "geometry": {"type": "Point", "coordinates": [-144.1396502902068, 73.74038943725176]}}, {"type": "Feature", "properties": {"norad_id": 35105, "name": "FENGYUN 1C DEB", "group": "fengyun-1c-debris", "lat": 76.84892041408769, "lon": -157.71186784348674, "alt_km": 717.7610975688813, "timestamp": "2025-12-24T05:51:19.896000+00:00", "meta": {"OBJECT_NAME": "FENGYUN 1C DEB", "OBJECT_ID": "1999-025DKH", "EPOCH": "2025-12-20T16:40:27.119712", "MEAN_MOTION": 14.45399411, "ECCENTRICITY": 0.01124743, "INCLINATION": 98.9445, "RA_OF_ASC_NODE": 336.168, "ARG_OF_PERICENTER": 30.8771, "MEAN_ANOMALY": 329.8969, "EPHEMERIS_TYPE": 0, "CLASSIFICATION_TYPE": "U", "NORAD_CAT_ID": 35105, "ELEMENT_SET_NO": 999, "REV_AT_EPOCH": 94608, "BSTAR": 0.00026626105, "MEAN_MOTION_DOT": 9.59e-06, "MEAN_MOTION_DDOT": 0}, "tle": {"line1": "1 35105U 99025DKH 25354.69475833  .00000959  00000+0  26626-3 0  9990", "line2": "2 35105  98.9445 336.1680 0112474  30.8771 329.8969 14.45399411946081"}}, "geometry": {"type": "Point", "coordinates": [-157.71186784348674, 76.84892041408769]}}, {"type": "Feature", "properties": {"norad_id": 35108, "name": "FENGYUN 1C DEB", "group": "fengyun-1c-debris", "lat": -79.72966282344957, "lon": 52.33050052466002, "alt_km": 915.8185098931235, "timestamp": "2025-12-24T05:51:19.896010+00:00", "meta": {"OBJECT_NAME": "FENGYUN 1C DEB", "OBJECT_ID": "1999-025DKL", "EPOCH": "2025-12-14T17:32:43.265184", "MEAN_MOTION": 14.06913766, "ECCENTRICITY": 0.01353379, "INCLINATION": 98.801, "RA_OF_ASC_NODE": 344.3103, "ARG_OF_PERICENTER": 55.9263, "MEAN_ANOMALY": 305.4667, "EPHEMERIS_TYPE": 0, "CLASSIFICATION_TYPE": "U", "NORAD_CAT_ID": 35108, "ELEMENT_SET_NO": 999, "REV_AT_EPOCH": 89266, "BSTAR": 0.00032621951, "MEAN_MOTION_DOT": 5.49e-06, "MEAN_MOTION_DDOT": 0}, "tle": {"line1": "1 35108U 99025DKL 25348.73105631  .00000549  00000+0  32622-3 0  9995", "line2": "2 35108  98.8010 344.3103 0135337  55.9263 305.4667 14.06913766892660"}}, "geometry": {"type": "Point", "coordinates": [52.33050052466002, -79.72966282344957]}}, {"type": "Feature", "properties": {"norad_id": 35109, "name": "FENGYUN 1C DEB", "group": "fengyun-1c-debris", "lat": -68.77582773115817, "lon": 10.221893353653298, "alt_km": 793.4471527891446, "timestamp": "2025-12-24T05:51:19.896020+00:00", "meta": {"OBJECT_NAME": "FENGYUN 1C DEB", "OBJECT_ID": "1999-025DKM", "EPOCH": "2025-12-23T16:39:33.510240", "MEAN_MOTION": 14.20891794, "ECCENTRICITY": 0.01528263, "INCLINATION": 98.616, "RA_OF_ASC_NODE": 346.7058, "ARG_OF_PERICENTER": 2.767, "MEAN_ANOMALY": 357.4318, "EPHEMERIS_TYPE": 0, "CLASSIFICATION_TYPE": "U", "NORAD_CAT_ID": 35109, "ELEMENT_SET_NO": 999, "REV_AT_EPOCH": 64315, "BSTAR": 0.00029677267, "MEAN_MOTION_DOT": 6.79e-06, "MEAN_MOTION_DDOT": 0}, "tle": {"line1": "1 35109U 99025DKM 25357.69413785  .00000679  00000+0  29677-3 0  9993", "line2": "2 35109  98.6160 346.7058 0152826   2.7670 357.4318 14.20891794643154"}}, "geometry": {"type": "Point", "coordinates": [10.221893353653298, -68.77582773115817]}}]}